#dP2022  6 21  0  0  0.00000000      96 __u+U ITR14 FIT  IAC
## 2215 172800.00000000   900.00000000 59751 0.0000000000000
+  126   C01C02C03C04C05C06C07C08C09C10C11C12C13C14C16C19C20
+        C21C22C23C24C25C26C27C28C29C30C32C33C34C35C36C37C38
+        C39C40C41C42C43C44C45C46C60E01E02E03E04E05E07E08E09
+        E10E11E12E13E14E15E18E19E21E24E25E26E27E30E31E33E34
+        E36G01G02G03G04G05G06G07G08G09G10G11G12G13G14G15G16
+        G17G18G19G20G21G22G23G24G25G26G27G28G29G30G31G32J02
+        J03J07R01R02R03R04R05R06R07R08R09R10R11R12R13R14R15
+        R17R18R19R20R21R23R24  0  0  0  0  0  0  0  0  0  0
++        17 16 17 17 17  9 10  9  8  9  9  8  9  9  9  7  7
++         7  7  7  7  7  7  7  7  7  7  7  7  7  7  7  7  8
++         8  8  7  7  7  7  7  7 17  4  4  4  4  4  4  4  4
++         5  4  4  4  4  4  4  5  4  4  4  4  5  5  4  5  4
++         4  4  4  4  4  4  4  4  3  4  3  4  4  4  3  3  4
++         4  3  4  4  4  4  3  3  4  4  3  4  4  4  4  4  8
++         8 17  7  6  6  6  6 15  6  6  6 15  6  6  7  6  6
++         6  6  7  7  6 15  6  0  0  0  0  0  0  0  0  0  0
%c M  cc GPS ccc cccc cccc cccc cccc ccccc ccccc ccccc ccccc
%c cc cc ccc ccc cccc cccc cccc cccc ccccc ccccc ccccc ccccc
%f  0.0000000  0.000000000  0.00000000000  0.000000000000000
%f  0.0000000  0.000000000  0.00000000000  0.000000000000000
%i    0    0    0    0      0      0      0      0         0
%i    0    0    0    0      0      0      0      0         0
/* INFORMATION & ANALYSIS CENTER (IAC)            RAPID DATA
/* S/V CLOCKS ARE ALIGNED TO GNSS TIME                      
/* G:C1WC2W R:C1PC2P E:C1XC5X C:C2IC6I J:C1CC2S             
/* PCV:IGS14_2196 OL/AL:FES2004  NONE     YN ORB:CoN CLK:CoN
*  2022 06 21 14 15  0.00000000
PC01 -34370.410759  24419.550375   -138.780202    332.892670
PC02   4348.638805  41969.197526   1227.743581   -105.418645
PC03 -14813.160739  39510.462838    393.690588   -518.840787
PC04 -39641.199369  14375.946572   -527.667282    115.272873
PC05  21866.162472  36083.381002   1056.818026    261.059413
PC06    506.184777  32661.033343  26798.900251    235.529259
PC07 -14049.902020  27846.740205 -28442.382124   -328.283709
PC08 -13155.539931  39850.014279   3262.554273    372.222861
PC09   5300.840646  35787.154374  22436.160342   -904.514687
PC10  -6723.617774  27942.409360 -30688.754594    124.649639
PC11  16320.470169  -3480.731849  22417.033158    428.092406
PC12  21574.739443  13486.873649  11471.027032   -593.967225
PC13  -8519.198013  40269.368301   8570.893234      2.336274
PC14  25828.524865  -9094.619141  -5184.547389    511.031924
PC16  -2316.522064  30495.396079  29323.769373    140.579778
PC19 -19911.623122  13878.460332  13821.664593    -48.023803
PC20 -27518.476318   4054.624585  -2461.269798   -965.765822
PC21  18984.348227   8946.223569  18397.202884   -528.285934
PC22   -516.584990  16096.803737  22795.088640   -963.824983
PC23   3100.449978 -26650.373472   7680.827929   -936.193929
PC24  17438.719745  -3281.314945 -21545.206184   -969.648686
PC25  13778.033145 -22490.258377  -9148.683122   -718.657768
PC26  11015.038270  14959.223711 -20822.487513    720.333340
PC27 -19733.405028 -19479.054018  -3112.685386    742.434059
PC28  -7681.089521 -23167.243290  13531.307664     81.150145
PC29  -9106.245324  13385.636551 -22741.371017    571.398571
PC30 -21060.479059  -4436.374113 -17763.567747    500.178568
PC32 -19054.396699  -8801.344605 -18381.456268   -970.294594
PC33  19878.786841 -13957.037341 -13713.676235   -971.448183
PC34  20738.999733   3494.483571  18336.493165   -375.866586
PC35   7484.632686  22738.975960 -14380.827318    330.903612
PC36 -14543.264542  21785.364352   9653.814083   -969.385928
PC37  -9933.703952 -16349.687638  20341.562242   -910.419928
PC38 -16813.999395  38308.363021  -4620.563286      4.737176
PC39  -6099.835180  26792.552388  32067.732965     34.994080
PC40 -21362.744327  21644.320033 -29308.195889    279.256315
PC41    994.838101 -16179.412803 -22661.662429    -19.606792
PC42  27469.342495  -3305.896582   3584.261937   -958.669310
PC43   9848.543139 -12831.738302  22724.763219   -916.882539
PC44  20343.498827  18910.926176   2848.114327    699.515869
PC45  -2917.492872  26571.149520  -7975.100402    789.241565
PC46 -17529.981818   5040.907841  21118.097392   -390.978372
PC60   7244.621712  41531.198001   -793.510488     -0.460912
PE01 -21512.397646  20292.081098  -1267.345575   -500.463971
PE02  21429.366517 -20377.672233   1441.479288    307.094159
PE03  16574.630490 -10899.240887 -21961.778458   -571.122459
PE04   4418.158649  18355.024083  22808.389531  -1054.869799
PE05  28272.408499   3134.273463  -8172.368013   -170.081984
PE07 -23357.701171 -15107.892183 -10124.188365   -680.496415
PE08  -4787.773623 -18235.551441 -22816.279276   -550.454166
PE09  23426.057375  14967.209755  10151.638193   -561.167061
PE10   9274.653745  27696.092689   4778.817619   -521.190120
PE11  14196.468975  21676.410811  14306.096391   3274.210071
PE12   3010.493691  29044.489104  -4919.189429    -22.685696
PE13 -13952.856763 -22175.189902 -13773.822455    429.410866
PE14  -6172.090116  19022.473888 -23740.542903  -1801.347530
PE15  -3003.184194 -29004.730956   5068.528399    738.016938
PE18  -9810.238231 -19370.412127  14789.336489  -1303.513181
PE19 -18783.624611   9211.881710  20951.617456  -5309.923163
PE21 -24123.493268   7492.660274  15433.401037   -741.474849
PE24  12183.661413  11502.633656 -24412.049382   -682.963766
PE25  24060.400962  -7252.290251 -15635.100900   -578.376633
PE26 -16654.614014  -1315.652192 -24439.821576  -1288.489605
PE27 -13139.210412 -10495.727135  24363.590863   -327.239882
PE30   6444.049043 -22399.441706  18244.786858   -610.610162
PE31  -5477.592154  22135.169288 -18864.669128   -498.643452
PE33  -9660.263638  18697.313934 -20822.864412   -455.420002
PE34   9510.883770 -18889.744920  20698.928878   -523.269377
PE36  16622.479847   2402.101253  24369.311582   -391.293149
PG01  13297.681459  -8116.370832  21143.536862    336.734328
PG02 -14039.509742 -14886.259381 -16198.140494   -652.452768
PG03  22957.946861 -12104.628906   5229.830002   -285.390600
PG04  21227.554436  -1894.542777 -15895.623656   -154.637757
PG05 -20347.310704    594.581884 -17309.269043    -86.341853
PG06  -6036.581437 -25209.037929  -5539.185879    352.833183
PG07   6377.330012 -22425.942404 -11833.575380    321.389186
PG08  24879.739522   3800.908732   8987.253445    -73.074307
PG09  12783.100906 -10569.105225 -20815.050593   -326.369612
PG10  -3985.525409  18499.897710  18658.685895   -463.494586
PG11 -12442.760627 -16367.533045 -16830.483796    -13.689408
PG12 -23806.858440   8154.349538   8059.182981   -234.574330
PG13 -23051.762944 -13295.965443   1413.678306    334.072860
PG14   6002.344437 -18955.358810  17562.901079   -111.798758
PG15 -25154.164264  -1016.754313   8521.261781    -51.479342
PG16  17161.688787   5716.505121 -19872.953654   -510.499392
PG17  -4471.528220 -17501.554678  19884.496508    627.738487
PG18  -6778.851557  22381.889717 -12492.204726    135.783661
PG19 -13047.056476 -18487.475979  13831.356861    173.639358
PG20 -12598.914813  -9352.096036 -21410.732951    509.566495
PG21  15987.493396   2872.060300  21748.103849    161.305665
PG22  15054.180295  18356.273920  12509.063795    279.505371
PG23 -13949.866124  19838.845359  10691.846317    -29.200314
PG24 -15171.607346   3920.988951  21128.738592    215.680355
PG25 -19079.607859  17786.360841  -4446.423845    340.066992
PG26   8553.517488  13298.696191 -21413.595322    213.714771
PG27  23160.917569  13029.317645  -3478.161750    217.208950
PG28  -2740.218280 -15740.784217  21761.504072    334.017589
PG29 -12811.970696   9326.091231 -21380.161460   -526.221984
PG30    -90.540405 -26261.569527  -2821.364385   -532.024685
PG31   7605.051125  23884.412710  -8171.277832   -182.694922
PG32   8136.193867  17674.209977  18310.828739   -156.752435
PJ02 -35331.489173  23125.921955   4016.539094     -0.873823
PJ03 -18865.937219  23893.555141 -24599.384775     -2.995598
PJ07 -25407.809180  33655.301776     39.057480     -0.013096
PR01  -8329.656464 -10141.289949 -21871.609873     10.277138
PR02 -23678.935961  -3733.236668  -8586.266782    521.902877
PR03 -23446.420857   4678.765604   8862.748292     58.830844
PR04 -10236.931068  10031.217772  21129.568026    147.521406
PR05   8612.487013  10073.927935  21812.953451     95.010479
PR06  24219.311958   2541.868120   7617.606741    -55.028811
PR07  23203.078018  -4905.568591  -9410.473503     36.740566
PR08  10116.424387 -10159.980932 -21043.536909    -65.809226
PR09  11328.666978   2533.679127 -22687.851940     61.687290
PR10  15404.348280 -13234.131872 -15483.700040    -83.487799
PR11  11261.489327 -22827.322897   1534.138897     35.551469
PR12     -6.412193 -18076.523016  18032.473971     18.961310
PR13 -10462.933031  -3742.785352  22949.291368    -23.819107
PR14 -15560.159391  14333.005906  14282.788437     25.167652
PR15 -11133.980973  22827.492336  -2385.417594     95.224172
PR17 -10996.349175   1919.777287 -22939.154595    536.848577
PR18   -327.484052  16608.586742 -19370.245941    121.026668
PR19   9152.370954  22819.446317  -6795.724209   -193.525580
PR20  15273.256739  15549.299610  13286.087665    -73.064566
PR21  10113.221958  -3381.009896  23162.811863   -311.249724
PR23 -12353.826129 -22287.888008   1110.421137    -45.054296
PR24 -15897.347705 -14479.879629 -13725.021193     99.787445
EOF
